[{"OBJECT_NAME":"GEOSCAN 2 (RS92S2)","OBJECT_ID":"2025-155Q","EPOCH":"2026-03-09T23:01:48.939744","MEAN_MOTION":15.28709337,"ECCENTRICITY":0.00085277,"INCLINATION":97.4463,"RA_OF_ASC_NODE":37.5259,"ARG_OF_PERICENTER":140.9505,"MEAN_ANOMALY":219.2352,"EPHEMERIS_TYPE":0,"CLASSIFICATION_TYPE":"U","NORAD_CAT_ID":64890,"ELEMENT_SET_NO":999,"REV_AT_EPOCH":6561,"BSTAR":0.00051551761,"MEAN_MOTION_DOT":0.00014341,"MEAN_MOTION_DDOT":0},{"OBJECT_NAME":"STARLINK-35780","OBJECT_ID":"2025-288R","EPOCH":"2026-03-09T05:47:19.980672","MEAN_MOTION":15.27572509,"ECCENTRICITY":8.265e-5,"INCLINATION":42.9984,"RA_OF_ASC_NODE":25.5657,"ARG_OF_PERICENTER":288.0165,"MEAN_ANOMALY":72.0596,"EPHEMERIS_TYPE":0,"CLASSIFICATION_TYPE":"U","NORAD_CAT_ID":66974,"ELEMENT_SET_NO":999,"REV_AT_EPOCH":1522,"BSTAR":0.00077910069,"MEAN_MOTION_DOT":0.00021234,"MEAN_MOTION_DDOT":0}]
